OPTICUBE 04             
1 41851U 16067D   25001.54252567  .00009564  00000+0  66624-3 0  9993
2 41851  98.0853 181.3951 0018514 109.1677 251.1554 15.05528323445057
AEROCUBE 8D             
1 41852U 16067E   25001.23531533  .00021478  00000+0  11983-2 0  9998
2 41852  98.1100 188.1668 0004723 146.6491 213.5036 15.13576729445296
AEROCUBE 8C             
1 41853U 16067F   24366.98561055  .00020007  00000+0  11153-2 0  9992
2 41853  98.0924 186.0144 0007736  88.2242 271.9874 15.13605960445241
PROMETHEUS 2-1          
1 41854U 16067G   25001.47411157  .00063797  00000+0  20692-2 0  9992
2 41854  98.0910 198.2055 0009809  88.4082 271.8281 15.31694760445922
PROMETHEUS 2-3          
1 41855U 16067H   25001.34812651  .00065422  00000+0  21285-2 0  9999
2 41855  98.0849 197.3662 0008211  98.0653 262.1518 15.31600471445905
CORVUS BC2              
1 42846U 17042X   25001.75532319  .00012108  00000+0  95242-3 0  9997
2 42846  97.3665 182.2510 0013552 106.2390 254.0327 15.00906503407191
CORVUS BC1              
1 42847U 17042Y   25001.56318630  .00011811  00000+0  92586-3 0  9993
2 42847  97.3675 182.4891 0013151  82.3693 277.9025 15.01049665407188
MIRATA                  
1 43015U 17073C   25001.40252787  .00087091  00000+0  26558-2 0  9996
2 43015  97.5648 251.8048 0123564 295.9547  62.9002 15.26378834386355
MAKERSAT 0              
1 43016U 17073D   25001.39636946  .00042778  00000+0  20073-2 0  9997
2 43016  97.5428 241.6814 0166263 329.4504  29.7119 15.08031528385680
SIRION PATHFINDER-2     
1 43759U 18099B   25001.39345285  .00015288  00000+0  10216-2 0  9997
2 43759  97.5030  58.2261 0009663 340.3481  19.7373 15.07036013332313
CORVUS BC4              
1 43767U 18099K   25001.61312319  .00017690  00000+0  12186-2 0  9990
2 43767  97.4854  54.9550 0010418  35.7831 324.4092 15.05865608332214
MOVE-II                 
1 43780U 18099Y   25001.43560428  .00098876  00000+0  28221-2 0  9993
2 43780  97.4923  70.7140 0004630  12.6181 347.5178 15.35634964333122
SPACEBEE-7              
1 43816U 18099BL  25001.42921891  .00054018  00000+0  22289-2 0  9995
2 43816  97.5216  69.9768 0007043 326.0385  34.0400 15.23828567332466
SPACEBEE-6              
1 43818U 18099BN  25001.43635336  .01265651  00000+0  43542-2 0  9997
2 43818  97.4970  82.4938 0007730 297.0102  63.0379 15.87079900333445
SHIELDS 1               
1 43850U 18104B   25001.48623018  .00053564  00000+0  98395-3 0  9993
2 43850  85.0202 147.5139 0009729  43.4031 316.7990 15.48977356336733
SONATE                  
1 44400U 19038Q   25001.27083085  .00089613  00000+0  14387-2 0  9995
2 44400  97.7116  12.6430 0013800 109.3148 250.9598 15.52624241304602
DUCHIFAT-3              
1 44854U 19089C   25001.86062250  .00145547  00000+0  47555-2 0  9992
2 44854  36.9494 271.7455 0012302 309.2558  50.7102 15.30235759278498
M2 PATHFINDER           
1 45727U 20037E   25001.44068315  .00010996  00000+0  88530-3 0  9997
2 45727  97.7776 183.3441 0011745 157.6236 202.5502 15.00074199245634
NETSAT-4                
1 46504U 20068U   25001.57904165  .00035377  00000+0  14848-2 0  9991
2 46504  97.8300 331.4430 0010454  46.8528 313.3580 15.23335665234284
NETSAT-3                
1 46505U 20068V   25001.18620967  .00030802  00000+0  13272-2 0  9992
2 46505  97.8287 330.2872 0010061  56.0235 304.1955 15.22479163234205
NETSAT-1                
1 46506U 20068W   25001.34321012  .00022877  00000+0  10852-2 0  9994
2 46506  97.8307 329.2509 0009392  65.7517 294.4697 15.19247195234140
NETSAT-2                
1 46507U 20068X   25001.86766718  .00073248  00000+0  30683-2 0  9990
2 46507  97.8290 331.3147 0008582  68.0289 292.1858 15.23208198234279
WILDTRACKCUBE-SIMBA     
1 47941U 21022K   25001.84552055  .00119834  00000+0  36528-2 0  9995
2 47941  97.4401 264.0703 0012561 151.5337 208.6594 15.33400805208771
GRBALPHA                
1 47959U 21022AD  25001.78734103  .00105747  00000+0  21497-2 0  9990
2 47959  97.4391 268.0800 0010859 130.8556 229.3636 15.45856902207852
BEESAT-8                
1 48085U 21022AP  25001.50121570  .00619120  00000+0  38670-2 0  9995
2 48085  97.4756 275.5031 0011360 101.6745 258.5795 15.75090921208519
LEDSAT                  
1 49069U 21073D   25001.65128458  .00076765  00000+0  19048-2 0  9992
2 49069  97.4128  79.0689 0013344 298.9903  61.0005 15.39986790186829
ROBUSTA-1F (MTCUBE 2)   
1 53109U 22080E   24365.35174012 -.00000003  00000+0  00000+0 0  9995
2 53109  70.1231 123.9128 0008380  45.3679 314.7663  6.42584036 57766
SITRO-AIS 5 (KATYS)     
1 57176U 23091L   25001.84101797  .00065988  00000+0  35008-2 0  9999
2 57176  97.5844  58.8531 0016084 155.9229 204.2758 15.14971538 83505
SITRO-AIS 6 (CHIRKIN)   
1 57192U 23091AC  25001.82139990  .00023710  00000+0  12682-2 0  9991
2 57192  97.5846  58.8639 0016046 155.2808 204.9196 15.14948614 83500
SITRO-AIS 8 (ANOKHIN)   
1 57193U 23091AD  25001.78400441  .00028566  00000+0  14902-2 0  9990
2 57193  97.5840  59.0549 0015553 156.0298 204.1662 15.15800838 83519
SITRO-AIS 7 (FARTUSHNIY)
1 57194U 23091AE  25001.83556762  .00028067  00000+0  15035-2 0  9999
2 57194  97.5843  58.8361 0015849 156.1493 204.0476 15.14861955 83505
SITRO-AIS 10 (BURDAEV)  
1 57199U 23091AK  25001.87473139  .00072360  00000+0  34879-2 0  9996
2 57199  97.5857  60.7263 0011493 140.3280 219.8797 15.18364059 83628
SITRO-AIS 9 (SHCHUKIN)  
1 57201U 23091AM  25001.74650751  .00035302  00000+0  17175-2 0  9998
2 57201  97.5854  60.5537 0011452 140.8152 219.3913 15.18250036 83601
SITRO-AIS 12 (SMIRENNIY)
1 57204U 23091AQ  25001.81534250  .00035527  00000+0  17187-2 0  9996
2 57204  97.5863  60.8363 0011483 135.0703 225.1462 15.18445281 83620
SITRO-AIS 11 (SHEFFER)  
1 57208U 23091AU  25001.78565438  .00033806  00000+0  16294-2 0  9994
2 57208  97.5857  60.8592 0011204 135.8981 224.3148 15.18588649 83626
VERONIKA                
1 58261U 23174F   25001.75202174  .00092526  00000+0  23774-2 0  9993
2 58261  97.4376  82.6266 0007980 258.6769 101.3580 15.38908506 64044
ROBUSTA-1E (ENSO)       
1 58470U 23185J   25001.57871016  .00072871  00000+0  19552-2 0  9994
2 58470  97.3995  73.7043 0008571 297.7619  62.2756 15.37654134 60467
SITRO-AIS 29            
1 59052U 24039B   25001.55396238  .00130191  00000+0  22689-2 0  9991
2 59052  97.4107 330.8458 0008475 204.4996 155.5854 15.50230832 47069
SITRO-AIS 30            
1 59053U 24039C   25001.84598206  .00105870  00000+0  18886-2 0  9993
2 59053  97.4109 331.0604 0008750 206.2652 153.8157 15.49655821 47090
SITRO-AIS 31            
1 59054U 24039D   25001.86980420  .00237769  00000+0  40905-2 0  9999
2 59054  97.4109 331.1806 0008496 206.7660 153.3154 15.50204774 47122
SITRO-AIS 33            
1 59055U 24039E   25001.84604308  .00113526  00000+0  19769-2 0  9994
2 59055  97.4108 331.2261 0008277 204.1934 155.8930 15.50317661 47119
SITRO-AIS 35            
1 59056U 24039F   25001.83865581  .00229258  00000+0  39187-2 0  9992
2 59056  97.4111 331.2294 0008158 206.5449 153.5386 15.50421727 47114
SITRO-AIS 32            
1 59057U 24039G   25001.87433364  .00230611  00000+0  40049-2 0  9991
2 59057  97.4115 331.1908 0008362 207.1409 152.9406 15.49963653 47113
SITRO-AIS 34            
1 59058U 24039H   25001.84557688  .00107716  00000+0  18794-2 0  9996
2 59058  97.4111 331.2285 0008259 204.3538 155.7324 15.50284023 47115
SITRO-AIS 36            
1 59059U 24039J   25001.88788304  .00221108  00000+0  37853-2 0  9991
2 59059  97.4103 331.3182 0007878 204.9877 155.0994 15.50409132 47129
SITRO-AIS 49            
1 59060U 24039K   25001.84617461  .00107106  00000+0  18887-2 0  9991
2 59060  97.4112 331.2264 0008289 205.7085 154.3756 15.49984352 47115
SITRO-AIS 50            
1 59061U 24039L   25001.85268312  .00119954  00000+0  20479-2 0  9994
2 59061  97.4102 331.3634 0007859 201.4058 158.6866 15.50857740 47124
SITRO-AIS 51            
1 59062U 24039M   25001.84840575  .00113853  00000+0  19329-2 0  9995
2 59062  97.4102 331.3660 0007826 201.1769 158.9160 15.51038941 47129
SITRO-AIS 52            
1 59063U 24039N   25001.89377897  .00246124  00000+0  40933-2 0  9996
2 59063  97.4109 331.4637 0007650 203.4921 156.5983 15.51140541 47130
SITRO-AIS 25            
1 59066U 24039R   25001.76262383  .00014677  00000+0  12950-2 0  9992
2 59066  95.3843 232.0470 0162677  18.7318 341.9795 14.86745759 45570
SITRO-AIS 26            
1 59067U 24039S   25001.84049533  .00015286  00000+0  13526-2 0  9999
2 59067  95.3844 232.0825 0162848  18.6029 342.1050 14.86615877 45589
SITRO-AIS 27            
1 59068U 24039T   25001.86861355  .00032625  00000+0  28602-2 0  9993
2 59068  95.3846 232.1711 0162139  18.1004 342.5897 14.86922303 45597
SITRO-AIS 28            
1 59071U 24039U   25001.79272415  .00014957  00000+0  13151-2 0  9993
2 59071  95.3848 232.1364 0162050  18.3294 342.3674 14.86940777 45587
GRBBETA                 
1 60237U 24128C   25001.30621044  .00014126  00000+0  11258-2 0  9995
2 60237  61.9937 273.8981 0033682  19.3999 340.8364 15.00161036 26284
OOV-CUBE (TUBSAT-30)    
1 60240U 24128F   25001.15527901  .00009205  00000+0  77098-3 0  9996
2 60240  61.9980 275.4390 0031956  14.9068 345.2955 14.98616385 26258
ROBUSTA-3A (MEDITERRAN*)
1 60243U 24128J   24365.75373882  .00021396  00000+0  16749-2 0  9994
2 60243  61.9910 279.6135 0031607   9.7768 350.3930 15.00669781 26059
